[
	{ 
		"zip": "94500" , 
		"settlement_type_id": 6, 
		"name": "INDEFINIDO" ,
		"sector_id": 1, 
		"colony_scope_id": 1 
	},
	{ 
		"zip": "94500" , 
		"settlement_type_id": 6 , 
		"name": "PRADERAS DE SAN MIGUELITO" ,
		"sector_id": 4, 
		"colony_scope_id": 1 
	},
	{ 
		"zip": "94500" , 
		"settlement_type_id": 6 , 
		"name": "ALAMEDA" ,
		"sector_id": 4, 
		"colony_scope_id": 1 
	},
	{ 
		"zip": "94500" , 
		"settlement_type_id": 6 , 
		"name": "ALAMOS" ,
		"sector_id": 1, 
		"colony_scope_id": 1 
	},
	{ 
		"zip": "94500" , 
		"settlement_type_id": 6 , 
		"name": "ALFA" ,
		"sector_id": 4, 
		"colony_scope_id": 1 
	},
	{ 
		"zip": "94500" , 
		"settlement_type_id": 6 , 
		"name": "ANA PAULA" ,
		"sector_id": 1, 
		"colony_scope_id": 1 
	},
	{ 
		"zip": "94500" , 
		"settlement_type_id": 6 , 
		"name": "BELLA VISTA" ,
		"sector_id": 4, 
		"colony_scope_id": 1 
	},
	{ 
		"zip": "94500" , 
		"settlement_type_id": 6 , 
		"name": "BRILLANTE" ,
		"sector_id": 4, 
		"colony_scope_id": 1 
	},
	{ 
		"zip": "94500" , 
		"settlement_type_id": 6 , 
		"name": "DIPA" ,
		"sector_id": 4, 
		"colony_scope_id": 1 
	},
	{ 
		"zip": "94500" , 
		"settlement_type_id": 6 , 
		"name": "EL CIPRES" ,
		"sector_id": 2, 
		"colony_scope_id": 1 
	},
	{ 
		"zip": "94500" , 
		"settlement_type_id": 6 , 
		"name": "EL HUERTO" ,
		"sector_id": 1, 
		"colony_scope_id": 1 
	},
	{ 
		"zip": "94500" , 
		"settlement_type_id": 6 , 
		"name": "EL MILAGRO" ,
		"sector_id": 4, 
		"colony_scope_id": 1 
	},
	{ 
		"zip": "94500" , 
		"settlement_type_id": 6 , 
		"name": "ELIZABETH" ,
		"sector_id": 4, 
		"colony_scope_id": 1 
	},
	{ 
		"zip": "94500" , 
		"settlement_type_id": 6 , 
		"name": "GUADALUPE" ,
		"sector_id": 4, 
		"colony_scope_id": 1 
	},
	{ 
		"zip": "94500" , 
		"settlement_type_id": 6 , 
		"name": "INFONAVIT SAN NICOLAS" ,
		"sector_id": 1, 
		"colony_scope_id": 1 
	},
	{ 
		"zip": "94500" , 
		"settlement_type_id": 6 , 
		"name": "JARDINES DE LA ALAMEDA" ,
		"sector_id": 4, 
		"colony_scope_id": 1 
	},
	{ 
		"zip": "94500" , 
		"settlement_type_id": 6 , 
		"name": "JARDINES DE SAN DIMAS" ,
		"sector_id": 2, 
		"colony_scope_id": 1 
	},
	{ 
		"zip": "94500" , 
		"settlement_type_id": 6 , 
		"name": "JARDINES DEL SUR" ,
		"sector_id": 4, 
		"colony_scope_id": 1 
	},
	{ 
		"zip": "94500" , 
		"settlement_type_id": 6 , 
		"name": "LOMAS" ,
		"sector_id": 2, 
		"colony_scope_id": 1 
	},
	{ 
		"zip": "94500" , 
		"settlement_type_id": 6 , 
		"name": "LOMAS DE LOS ANGELES" ,
		"sector_id": 1, 
		"colony_scope_id": 1 
	},
	{ 
		"zip": "94500" , 
		"settlement_type_id": 6 , 
		"name": "LOMAS VERDES" ,
		"sector_id": 1, 
		"colony_scope_id": 1 
	},
	{ 
		"zip": "94500" , 
		"settlement_type_id": 6 , 
		"name": "LOS CAFETALES" ,
		"sector_id": 2, 
		"colony_scope_id": 1 
	},
	{ 
		"zip": "94500" , 
		"settlement_type_id": 6 , 
		"name": "LOS CEDROS" ,
		"sector_id": 4, 
		"colony_scope_id": 1 
	},
	{ 
		"zip": "94500" , 
		"settlement_type_id": 6 , 
		"name": "LOS NARDOS" ,
		"sector_id": 1, 
		"colony_scope_id": 1 
	},
	{ 
		"zip": "94500" , 
		"settlement_type_id": 6 , 
		"name": "LOS OLIVOS" ,
		"sector_id": 4, 
		"colony_scope_id": 1 
	},
	{ 
		"zip": "94500" , 
		"settlement_type_id": 6 , 
		"name": "NUEVO CORDOBA" ,
		"sector_id": 2, 
		"colony_scope_id": 1 
	},
	{ 
		"zip": "94500" , 
		"settlement_type_id": 6 , 
		"name": "NUEVO SAN JOSE" ,
		"sector_id": 2, 
		"colony_scope_id": 1 
	},
	{ 
		"zip": "94500" , 
		"settlement_type_id": 6 , 
		"name": "NVA. ELIZABETH" ,
		"sector_id": 2, 
		"colony_scope_id": 1 
	},
	{ 
		"zip": "94500" , 
		"settlement_type_id": 6 , 
		"name": "SAN JOSE" ,
		"sector_id": 2, 
		"colony_scope_id": 1 
	},
	{ 
		"zip": "94500" , 
		"settlement_type_id": 6 , 
		"name": "SAN LUIS" ,
		"sector_id": 1, 
		"colony_scope_id": 1 
	},
	{ 
		"zip": "94500" , 
		"settlement_type_id": 6 , 
		"name": "SAN NICOLAS" ,
		"sector_id": 1, 
		"colony_scope_id": 1 
	},
	{ 
		"zip": "94500" , 
		"settlement_type_id": 6 , 
		"name": "SANTA CLARA" ,
		"sector_id": 2, 
		"colony_scope_id": 1 
	},
	{ 
		"zip": "94500" , 
		"settlement_type_id": 6 , 
		"name": "SANTA MONICA" ,
		"sector_id": 2, 
		"colony_scope_id": 1 
	},
	{ 
		"zip": "94500" , 
		"settlement_type_id": 6 , 
		"name": "VILLA REAL" ,
		"sector_id": 1, 
		"colony_scope_id": 1 
	},
	{ 
		"zip": "94500" , 
		"settlement_type_id": 6 , 
		"name": "VILLA VERDE" ,
		"sector_id": 4, 
		"colony_scope_id": 1 
	},
	{ 
		"zip": "94500" , 
		"settlement_type_id": 6 , 
		"name": "VILLAS DE LA LUZ" ,
		"sector_id": 1, 
		"colony_scope_id": 1 
	},
	{ 
		"zip": "94500" , 
		"settlement_type_id": 6 , 
		"name": "VILLAS PARAISO" ,
		"sector_id": 4, 
		"colony_scope_id": 1 
	},
	{ 
		"zip": "94500" , 
		"settlement_type_id": 6 , 
		"name": "VIRGINIA" ,
		"sector_id": 1, 
		"colony_scope_id": 1 
	},
	{ 
		"zip": "94500" , 
		"settlement_type_id": 6 , 
		"name": "EL CAÑAVERAL" ,
		"sector_id": 4, 
		"colony_scope_id": 1 
	},
	{ 
		"zip": "94500" , 
		"settlement_type_id": 6 , 
		"name": "SAN JOSE 1" ,
		"sector_id": 3, 
		"colony_scope_id": 1 
	},
	{ 
		"zip": "94500" , 
		"settlement_type_id": 6 , 
		"name": "VILLAS DE HUILANGO" ,
		"sector_id": 1, 
		"colony_scope_id": 1 
	},
	{ 
		"zip": "94500" , 
		"settlement_type_id": 6 , 
		"name": "LOS FRESNOS" ,
		"sector_id": 4, 
		"colony_scope_id": 1 
	},
	{ 
		"zip": "94500" , 
		"settlement_type_id": 6 , 
		"name": "VILLA LOS FRESNOS" ,
		"sector_id": 1, 
		"colony_scope_id": 1 
	},
	{ 
		"zip": "94500" , 
		"settlement_type_id": 6 , 
		"name": "CLUB CAMPESTRE" ,
		"sector_id": 2, 
		"colony_scope_id": 1 
	},
	{ 
		"zip": "94500" , 
		"settlement_type_id": 6 , 
		"name": "SHELL" ,
		"sector_id": 4, 
		"colony_scope_id": 1 
	},
	{ 
		"zip": "94500" , 
		"settlement_type_id": 6 , 
		"name": "ORQUIDIA" ,
		"sector_id": 2, 
		"colony_scope_id": 1 
	},
	{ 
		"zip": "94500" , 
		"settlement_type_id": 6 , 
		"name": "LOS ANGELES" ,
		"sector_id": 4, 
		"colony_scope_id": 1 
	},
	{ 
		"zip": "94500" , 
		"settlement_type_id": 6 , 
		"name": "FINCA REAL" ,
		"sector_id": 2, 
		"colony_scope_id": 1 
	},
	{ 
		"zip": "94500" , 
		"settlement_type_id": 6 , 
		"name": "DEL ANGEL" ,
		"sector_id": 2, 
		"colony_scope_id": 1 
	},
	{ 
		"zip": "94500" , 
		"settlement_type_id": 6 , 
		"name": "SAN ANGEL" ,
		"sector_id": 1, 
		"colony_scope_id": 1 
	},
	{ 
		"zip": "94500" , 
		"settlement_type_id": 6 , 
		"name": "LOS TULIPANES" ,
		"sector_id": 1, 
		"colony_scope_id": 1 
	},
	{ 
		"zip": "94500" , 
		"settlement_type_id": 6 , 
		"name": "ANTURIOS" ,
		"sector_id": 2, 
		"colony_scope_id": 1 
	},
	{ 
		"zip": "94500" , 
		"settlement_type_id": 6 , 
		"name": "VILLAS DE SAN ISIDRO" ,
		"sector_id": 2, 
		"colony_scope_id": 1 
	},
	{ 
		"zip": "94500" , 
		"settlement_type_id": 6 , 
		"name": "PRADERAS DE SAN MIGUELITO" ,
		"sector_id": 4, 
		"colony_scope_id": 1 
	},
	{ 
		"zip": "94500" , 
		"settlement_type_id": 6 , 
		"name": "EL DIAMANTE" ,
		"sector_id": 4, 
		"colony_scope_id": 1 
	},
	{ 
		"zip": "94500" , 
		"settlement_type_id": 6 , 
		"name": "ARCADIA" ,
		"sector_id": 4, 
		"colony_scope_id": 1 
	},
	{ 
		"zip": "94500" , 
		"settlement_type_id": 10 , 
		"name": "20 DE NOVIEMBRE" ,
		"sector_id": 1, 
		"colony_scope_id": 1 
	},
	{ 
		"zip": "94500" , 
		"settlement_type_id": 10 , 
		"name": "CUAUHTEMOC" ,
		"sector_id": 3, 
		"colony_scope_id": 1 
	},
	{ 
		"zip": "94500" , 
		"settlement_type_id": 10 , 
		"name": "GUADALUPE BARREAL" ,
		"sector_id": 2, 
		"colony_scope_id": 1 
	},
	{ 
		"zip": "94500" , 
		"settlement_type_id": 10 , 
		"name": "SAN JOSE DE TAPIA" ,
		"sector_id": 1, 
		"colony_scope_id": 1 
	},
	{ 
		"zip": "94500" , 
		"settlement_type_id": 10 , 
		"name": "SAN RAFAEL CALERIA" ,
		"sector_id": 2, 
		"colony_scope_id": 1 
	},
	{ 
		"zip": "94500" , 
		"settlement_type_id": 2 , 
		"name": "AGUA FRIA" ,
		"sector_id": 2, 
		"colony_scope_id": 1 
	},
	{ 
		"zip": "94500" , 
		"settlement_type_id": 2 , 
		"name": "AGUILLON GUZMAN" ,
		"sector_id": 4, 
		"colony_scope_id": 1 
	},
	{ 
		"zip": "94500" , 
		"settlement_type_id": 2 , 
		"name": "AGUSTIN MILLAN" ,
		"sector_id": 3, 
		"colony_scope_id": 1 
	},
	{ 
		"zip": "94500" , 
		"settlement_type_id": 2 , 
		"name": "ALIANZA POPULAR" ,
		"sector_id": 1, 
		"colony_scope_id": 1 
	},
	{ 
		"zip": "94500" , 
		"settlement_type_id": 2 , 
		"name": "AMPLIACIÓN 20 DE NOVIEMBRE" ,
		"sector_id": 1, 
		"colony_scope_id": 1 
	},
	{ 
		"zip": "94500" , 
		"settlement_type_id": 2 , 
		"name": "AMPLIACIÓN ZACATEPEC" ,
		"sector_id": 1, 
		"colony_scope_id": 1 
	},
	{ 
		"zip": "94500" , 
		"settlement_type_id": 2 , 
		"name": "ANTONIO LUNA" ,
		"sector_id": 1, 
		"colony_scope_id": 1 
	},
	{ 
		"zip": "94500" , 
		"settlement_type_id": 2 , 
		"name": "ANTORCHA SEC.  B y C " ,
		"sector_id": 1, 
		"colony_scope_id": 1 
	},
	{ 
		"zip": "94500" , 
		"settlement_type_id": 2 , 
		"name": "ANTORCHA SEC. A ",
		"sector_id": 1, 
		"colony_scope_id": 1 
	},
	{ 
		"zip": "94500" , 
		"settlement_type_id": 2 , 
		"name": "ARAUCARIAS" ,
		"sector_id": 2, 
		"colony_scope_id": 1 
	},
	{ 
		"zip": "94500" , 
		"settlement_type_id": 2 , 
		"name": "ARRALLANES" ,
		"sector_id": 4, 
		"colony_scope_id": 1 
	},
	{ 
		"zip": "94500" , 
		"settlement_type_id": 2 , 
		"name": "BARRIO DE LAS CONCHITAS  " ,
		"sector_id": 4, 
		"colony_scope_id": 1 
	},
	{ 
		"zip": "94500" , 
		"settlement_type_id": 2 , 
		"name": "BARRIO DE SAN MIGUEL" ,
		"sector_id": 3, 
		"colony_scope_id": 1 
	},
	{ 
		"zip": "94500" , 
		"settlement_type_id": 2 , 
		"name": "BARRIO DE SAN PEDRO" ,
		"sector_id": 3, 
		"colony_scope_id": 1 
	},
	{ 
		"zip": "94500" , 
		"settlement_type_id": 2 , 
		"name": "BENITO JUAREZ" ,
		"sector_id": 4, 
		"colony_scope_id": 1 
	},
	{ 
		"zip": "94500" , 
		"settlement_type_id": 2 , 
		"name": "BRILLANTE CRUCERO" ,
		"sector_id": 4, 
		"colony_scope_id": 1 
	},
	{ 
		"zip": "94500" , 
		"settlement_type_id": 2 , 
		"name": "CANDIDO AGUILAR" ,
		"sector_id": 4, 
		"colony_scope_id": 1 
	},
	{ 
		"zip": "94500" , 
		"settlement_type_id": 2 , 
		"name": "CARACAS" ,
		"sector_id": 4, 
		"colony_scope_id": 1 
	},
	{ 
		"zip": "94500" , 
		"settlement_type_id": 2 , 
		"name": "CARRILES" ,
		"sector_id": 3, 
		"colony_scope_id": 1 
	},
	{ 
		"zip": "94500" , 
		"settlement_type_id": 2 , 
		"name": "CENTRO" ,
		"sector_id": 3, 
		"colony_scope_id": 1 
	},
	{ 
		"zip": "94500" , 
		"settlement_type_id": 2 , 
		"name": "COLORINES" ,
		"sector_id": 1, 
		"colony_scope_id": 1 
	},
	{ 
		"zip": "94500" , 
		"settlement_type_id": 2 , 
		"name": "DANTE DELGADO (30 CABALLEROS)" ,
		"sector_id": 2, 
		"colony_scope_id": 1 
	},
	{ 
		"zip": "94500" , 
		"settlement_type_id": 2 , 
		"name": "DE LOS MAESTROS" ,
		"sector_id": 2, 
		"colony_scope_id": 1 
	},
	{ 
		"zip": "94500" , 
		"settlement_type_id": 2 , 
		"name": "DIVINA MORALES DE GTZ. BARRIOS" ,
		"sector_id": 1, 
		"colony_scope_id": 1 
	},
	{ 
		"zip": "94500" , 
		"settlement_type_id": 2 , 
		"name": "DOS CAMINOS" ,
		"sector_id": 2, 
		"colony_scope_id": 1 
	},
	{ 
		"zip": "94500" , 
		"settlement_type_id": 2 , 
		"name": "EL CARMEN" ,
		"sector_id": 4, 
		"colony_scope_id": 1 
	},
	{ 
		"zip": "94500" , 
		"settlement_type_id": 2 , 
		"name": "EL GIRASOL" ,
		"sector_id": 1, 
		"colony_scope_id": 1 
	},
	{ 
		"zip": "94500" , 
		"settlement_type_id": 2 , 
		"name": "EL MIRADOR" ,
		"sector_id": 1, 
		"colony_scope_id": 1 
	},
	{ 
		"zip": "94500" , 
		"settlement_type_id": 2 , 
		"name": "EL MIRADOR" ,
		"sector_id": 3, 
		"colony_scope_id": 1 
	},
	{ 
		"zip": "94500" , 
		"settlement_type_id": 2 , 
		"name": "EL PALOMAR" ,
		"sector_id": 4, 
		"colony_scope_id": 1 
	},
	{ 
		"zip": "94500" , 
		"settlement_type_id": 2 , 
		"name": "EL PUEBLITO (CRUCERO NACIONAL)" ,
		"sector_id": 1, 
		"colony_scope_id": 1 
	},
	{ 
		"zip": "94500" , 
		"settlement_type_id": 2 , 
		"name": "EL REFUGIO" ,
		"sector_id": 3, 
		"colony_scope_id": 1 
	},
	{ 
		"zip": "94500" , 
		"settlement_type_id": 2 , 
		"name": "EL SOL" ,
		"sector_id": 1, 
		"colony_scope_id": 1 
	},
	{ 
		"zip": "94500" , 
		"settlement_type_id": 2 , 
		"name": "ELECTRICISTAS" ,
		"sector_id": 4, 
		"colony_scope_id": 1 
	},
	{ 
		"zip": "94500" , 
		"settlement_type_id": 2 , 
		"name": "EMILIO CARRANZA" ,
		"sector_id": 4, 
		"colony_scope_id": 1 
	},
	{ 
		"zip": "94500" , 
		"settlement_type_id": 2 , 
		"name": "ENRIQUE RAMOS" ,
		"sector_id": 4, 
		"colony_scope_id": 1 
	},
	{ 
		"zip": "94500" , 
		"settlement_type_id": 2 , 
		"name": "ESPERANZA" ,
		"sector_id": 4, 
		"colony_scope_id": 1 
	},
	{ 
		"zip": "94500" , 
		"settlement_type_id": 2 , 
		"name": "FEDERAL" ,
		"sector_id": 2, 
		"colony_scope_id": 1 
	},
	{ 
		"zip": "94500" , 
		"settlement_type_id": 2 , 
		"name": "FLORES MAGON" ,
		"sector_id": 3, 
		"colony_scope_id": 1 
	},
	{ 
		"zip": "94500" , 
		"settlement_type_id": 2 , 
		"name": "FRATERNIDAD" ,
		"sector_id": 1, 
		"colony_scope_id": 1 
	},
	{ 
		"zip": "94500" , 
		"settlement_type_id": 2 , 
		"name": "FREDEPO" ,
		"sector_id": 1, 
		"colony_scope_id": 1 
	},
	{ 
		"zip": "94500" , 
		"settlement_type_id": 2 , 
		"name": "FUNDADORES 30 CABALLEROS" ,
		"sector_id": 1, 
		"colony_scope_id": 1 
	},
	{ 
		"zip": "94500" , 
		"settlement_type_id": 2 , 
		"name": "GOMEZ MORIN" ,
		"sector_id": 4, 
		"colony_scope_id": 1 
	},
	{ 
		"zip": "94500" , 
		"settlement_type_id": 2 , 
		"name": "HUILANGO" ,
		"sector_id": 4, 
		"colony_scope_id": 1 
	},
	{ 
		"zip": "94500" , 
		"settlement_type_id": 2 , 
		"name": "INDECO TOXPAN" ,
		"sector_id": 3, 
		"colony_scope_id": 1 
	},
	{ 
		"zip": "94500" , 
		"settlement_type_id": 2 , 
		"name": "INDEPENDENCIA" ,
		"sector_id": 4, 
		"colony_scope_id": 1 
	},
	{ 
		"zip": "94500" , 
		"settlement_type_id": 2 , 
		"name": "JOSE MARIA MORELOS" ,
		"sector_id": 4, 
		"colony_scope_id": 1 
	},
	{ 
		"zip": "94500" , 
		"settlement_type_id": 2 , 
		"name": "LA ESMERALDA" ,
		"sector_id": 1, 
		"colony_scope_id": 1 
	},
	{ 
		"zip": "94500" , 
		"settlement_type_id": 2 , 
		"name": "LA ESTACION" ,
		"sector_id": 4, 
		"colony_scope_id": 1 
	},
	{ 
		"zip": "94500" , 
		"settlement_type_id": 2 , 
		"name": "LA LUZ FRANCISCO I. MADERO" ,
		"sector_id": 1, 
		"colony_scope_id": 1 
	},
	{ 
		"zip": "94500" , 
		"settlement_type_id": 2 , 
		"name": "LA NUEVA" ,
		"sector_id": 3, 
		"colony_scope_id": 1 
	},
	{ 
		"zip": "94500" , 
		"settlement_type_id": 2 , 
		"name": "LA POSTA" ,
		"sector_id": 1, 
		"colony_scope_id": 1 
	},
	{ 
		"zip": "94500" , 
		"settlement_type_id": 2 , 
		"name": "LA SIDRA" ,
		"sector_id": 4, 
		"colony_scope_id": 1 
	},
	{ 
		"zip": "94500" , 
		"settlement_type_id": 2 , 
		"name": "LAS AZUCENAS" ,
		"sector_id": 1, 
		"colony_scope_id": 1 
	},
	{ 
		"zip": "94500" , 
		"settlement_type_id": 2 , 
		"name": "LAS BUGAMBILIAS" ,
		"sector_id": 1, 
		"colony_scope_id": 1 
	},
	{ 
		"zip": "94500" , 
		"settlement_type_id": 2 , 
		"name": "LAS FLORES" ,
		"sector_id": 3, 
		"colony_scope_id": 1 
	},
	{ 
		"zip": "94500" , 
		"settlement_type_id": 2 , 
		"name": "LAZARO CARDENAS" ,
		"sector_id": 4, 
		"colony_scope_id": 1 
	},
	{ 
		"zip": "94500" , 
		"settlement_type_id": 2 , 
		"name": "LOMBARDO TOLEDANO" ,
		"sector_id": 4, 
		"colony_scope_id": 1 
	},
	{ 
		"zip": "94500" , 
		"settlement_type_id": 2 , 
		"name": "LOPEZ ARIAS" ,
		"sector_id": 4, 
		"colony_scope_id": 1 
	},
	{ 
		"zip": "94500" , 
		"settlement_type_id": 2 , 
		"name": "LOS ALAMOS 1 y 2" ,
		"sector_id": 1, 
		"colony_scope_id": 1 
	},
	{ 
		"zip": "94500" , 
		"settlement_type_id": 2 , 
		"name": "LOS FILTROS" ,
		"sector_id": 2, 
		"colony_scope_id": 1 
	},
	{ 
		"zip": "94500" , 
		"settlement_type_id": 2 , 
		"name": "LOS MANGOS" ,
		"sector_id": 3, 
		"colony_scope_id": 1 
	},
	{ 
		"zip": "94500" , 
		"settlement_type_id": 2 , 
		"name": "LOS ROBLES-RESERVA TERRITORIAL" ,
		"sector_id": 1, 
		"colony_scope_id": 1 
	},
	{ 
		"zip": "94500" , 
		"settlement_type_id": 2 , 
		"name": "MARQUEZ HOYOS" ,
		"sector_id": 4, 
		"colony_scope_id": 1 
	},
	{ 
		"zip": "94500" , 
		"settlement_type_id": 2 , 
		"name": "MEXICO" ,
		"sector_id": 3, 
		"colony_scope_id": 1 
	},
	{ 
		"zip": "94500" , 
		"settlement_type_id": 2 , 
		"name": "MIGUEL ALEMAN" ,
		"sector_id": 3, 
		"colony_scope_id": 1 
	},
	{ 
		"zip": "94500" , 
		"settlement_type_id": 2 , 
		"name": "MIGUEL HIDALGO" ,
		"sector_id": 3, 
		"colony_scope_id": 1 
	},
	{ 
		"zip": "94500" , 
		"settlement_type_id": 2 , 
		"name": "MIRAFLORES 1 y 2" ,
		"sector_id": 1, 
		"colony_scope_id": 1 
	},
	{ 
		"zip": "94500" , 
		"settlement_type_id": 2 , 
		"name": "MODERNA" ,
		"sector_id": 4, 
		"colony_scope_id": 1 
	},
	{ 
		"zip": "94500" , 
		"settlement_type_id": 2 , 
		"name": "MURILLO VIDAL" ,
		"sector_id": 1, 
		"colony_scope_id": 1 
	},
	{ 
		"zip": "94500" , 
		"settlement_type_id": 2 , 
		"name": "NUEVA ESPERANZA" ,
		"sector_id": 1, 
		"colony_scope_id": 1 
	},
	{ 
		"zip": "94500" , 
		"settlement_type_id": 2 , 
		"name": "NUEVO TOXPAN" ,
		"sector_id": 3, 
		"colony_scope_id": 1 
	},
	{ 
		"zip": "94500" , 
		"settlement_type_id": 2 , 
		"name": "PABLO L SIDAR" ,
		"sector_id": 3, 
		"colony_scope_id": 1 
	},
	{ 
		"zip": "94500" , 
		"settlement_type_id": 2 , 
		"name": "PARAISO" ,
		"sector_id": 4, 
		"colony_scope_id": 1 
	},
	{ 
		"zip": "94500" , 
		"settlement_type_id": 2 , 
		"name": "PARDO" ,
		"sector_id": 4, 
		"colony_scope_id": 1 
	},
	{ 
		"zip": "94500" , 
		"settlement_type_id": 2 , 
		"name": "PASO COYOL" ,
		"sector_id": 4, 
		"colony_scope_id": 1 
	},
	{ 
		"zip": "94500" , 
		"settlement_type_id": 2 , 
		"name": "PENJAMO" ,
		"sector_id": 4, 
		"colony_scope_id": 1 
	},
	{ 
		"zip": "94500" , 
		"settlement_type_id": 2 , 
		"name": "PETROLERA" ,
		"sector_id": 1, 
		"colony_scope_id": 1 
	},
	{ 
		"zip": "94500" , 
		"settlement_type_id": 2 , 
		"name": "PINO SUAREZ" ,
		"sector_id": 4, 
		"colony_scope_id": 1 
	},
	{ 
		"zip": "94500" , 
		"settlement_type_id": 2 , 
		"name": "POPULAR EL TREBOL" ,
		"sector_id": 1, 
		"colony_scope_id": 1 
	},
	{ 
		"zip": "94500" , 
		"settlement_type_id": 2 , 
		"name": "POPULAR LA POSTA" ,
		"sector_id": 1, 
		"colony_scope_id": 1 
	},
	{ 
		"zip": "94500" , 
		"settlement_type_id": 2 , 
		"name": "PRAXEDIS GUERRERO" ,
		"sector_id": 3, 
		"colony_scope_id": 1 
	},
	{ 
		"zip": "94500" , 
		"settlement_type_id": 2 , 
		"name": "PUEBLO QUIETO" ,
		"sector_id": 1, 
		"colony_scope_id": 1 
	},
	{ 
		"zip": "94500" , 
		"settlement_type_id": 2 , 
		"name": "PUENTE BEJUCO" ,
		"sector_id": 4, 
		"colony_scope_id": 1 
	},
	{ 
		"zip": "94500" , 
		"settlement_type_id": 2 , 
		"name": "RANCHO ARCADIA" ,
		"sector_id": 4, 
		"colony_scope_id": 1 
	},
	{ 
		"zip": "94500" , 
		"settlement_type_id": 2 , 
		"name": "RANCHO LA ESMERALDA" ,
		"sector_id": 1, 
		"colony_scope_id": 1 
	},
	{ 
		"zip": "94500" , 
		"settlement_type_id": 2 , 
		"name": "RANCHO MIRANDA" ,
		"sector_id": 4, 
		"colony_scope_id": 1 
	},
	{ 
		"zip": "94500" , 
		"settlement_type_id": 2 , 
		"name": "RANCHO MORALES" ,
		"sector_id": 4, 
		"colony_scope_id": 1 
	},
	{ 
		"zip": "94500" , 
		"settlement_type_id": 2 , 
		"name": "RODRIGUEZ CLARA" ,
		"sector_id": 3, 
		"colony_scope_id": 1 
	},
	{ 
		"zip": "94500" , 
		"settlement_type_id": 2 , 
		"name": "SAN CAYETANO" ,
		"sector_id": 3, 
		"colony_scope_id": 1 
	},
	{ 
		"zip": "94500" , 
		"settlement_type_id": 2 , 
		"name": "SAN CRISTOBAL" ,
		"sector_id": 4, 
		"colony_scope_id": 1 
	},
	{ 
		"zip": "94500" , 
		"settlement_type_id": 2 , 
		"name": "SAN DIMAS" ,
		"sector_id": 2, 
		"colony_scope_id": 1 
	},
	{ 
		"zip": "94500" , 
		"settlement_type_id": 2 , 
		"name": "SAN FCO. TOXPAN" ,
		"sector_id": 3, 
		"colony_scope_id": 1 
	},
	{ 
		"zip": "94500" , 
		"settlement_type_id": 2 , 
		"name": "SAN IGNACIO" ,
		"sector_id": 4, 
		"colony_scope_id": 1 
	},
	{ 
		"zip": "94500" , 
		"settlement_type_id": 2 , 
		"name": "SAN MARTIN" ,
		"sector_id": 4, 
		"colony_scope_id": 1 
	},
	{ 
		"zip": "94500" , 
		"settlement_type_id": 2 , 
		"name": "SAN MATIAS" ,
		"sector_id": 3, 
		"colony_scope_id": 1 
	},
	{ 
		"zip": "94500" , 
		"settlement_type_id": 2 , 
		"name": "SAN MIGUELITO" ,
		"sector_id": 4, 
		"colony_scope_id": 1 
	},
	{ 
		"zip": "94500" , 
		"settlement_type_id": 2 , 
		"name": "SANTA AURELIA" ,
		"sector_id": 4, 
		"colony_scope_id": 1 
	},
	{ 
		"zip": "94500" , 
		"settlement_type_id": 2 , 
		"name": "SANTA CRUZ BUENAVISTA" ,
		"sector_id": 4, 
		"colony_scope_id": 1 
	},
	{ 
		"zip": "94500" , 
		"settlement_type_id": 2 , 
		"name": "SANTA FE" ,
		"sector_id": 1, 
		"colony_scope_id": 1 
	},
	{ 
		"zip": "94500" , 
		"settlement_type_id": 2 , 
		"name": "SANTA ROSALIA" ,
		"sector_id": 4, 
		"colony_scope_id": 1 
	},
	{ 
		"zip": "94500" , 
		"settlement_type_id": 2 , 
		"name": "STA. CECILIA" ,
		"sector_id": 1, 
		"colony_scope_id": 1 
	},
	{ 
		"zip": "94500" , 
		"settlement_type_id": 2 , 
		"name": "TOXPAN" ,
		"sector_id": 3, 
		"colony_scope_id": 1 
	},
	{ 
		"zip": "94500" , 
		"settlement_type_id": 2 , 
		"name": "TRANCA DE TUBOS O ZACATEPEC" ,
		"sector_id": 1, 
		"colony_scope_id": 1 
	},
	{ 
		"zip": "94500" , 
		"settlement_type_id": 2 , 
		"name": "URSULO GALVAN" ,
		"sector_id": 3, 
		"colony_scope_id": 1 
	},
	{ 
		"zip": "94500" , 
		"settlement_type_id": 2 , 
		"name": "VALLE DEL SOL" ,
		"sector_id": 1, 
		"colony_scope_id": 1 
	},
	{ 
		"zip": "94500" , 
		"settlement_type_id": 2 , 
		"name": "VENUSTIANO CARRANZA" ,
		"sector_id": 2, 
		"colony_scope_id": 1 
	},
	{ 
		"zip": "94500" , 
		"settlement_type_id": 2 , 
		"name": "ZACATEPEC AEROPISTA" ,
		"sector_id": 1, 
		"colony_scope_id": 1 
	},
	{ 
		"zip": "94500" , 
		"settlement_type_id": 2 , 
		"name": "ZONA INDUSTRIAL" ,
		"sector_id": 4, 
		"colony_scope_id": 1 
	},
	{ 
		"zip": "94500" , 
		"settlement_type_id": 2 , 
		"name": "ACCION Y SERVICIO" ,
		"sector_id": 1, 
		"colony_scope_id": 1 
	},
	{ 
		"zip": "94500" , 
		"settlement_type_id": 2 , 
		"name": "LAS AZUCENAS" ,
		"sector_id": 1, 
		"colony_scope_id": 1 
	},
	{ 
		"zip": "94500" , 
		"settlement_type_id": 2 , 
		"name": "PARAISO ESCONDIDO" ,
		"sector_id": 4, 
		"colony_scope_id": 1 
	},
	{ 
		"zip": "94500" , 
		"settlement_type_id": 2 , 
		"name": "CENTRO 1" ,
		"sector_id": 4, 
		"colony_scope_id": 1 
	},
	{ 
		"zip": "94500" , 
		"settlement_type_id": 2 , 
		"name": "VENUSTIANO CARRANZA 1" ,
		"sector_id": 3, 
		"colony_scope_id": 1 
	},
	{ 
		"zip": "94500" , 
		"settlement_type_id": 2 , 
		"name": "TOXPAN 1" ,
		"sector_id": 2, 
		"colony_scope_id": 1 
	},
	{ 
		"zip": "94500" , 
		"settlement_type_id": 2 , 
		"name": "MEXICO 1" ,
		"sector_id": 2, 
		"colony_scope_id": 1 
	},
	{ 
		"zip": "94500" , 
		"settlement_type_id": 2 , 
		"name": "CENTRO" ,
		"sector_id": 2, 
		"colony_scope_id": 1 
	},
	{ 
		"zip": "94500" , 
		"settlement_type_id": 2 , 
		"name": "FRATERNIDAD ARBOLEDAS" ,
		"sector_id": 3, 
		"colony_scope_id": 1 
	},
	{ 
		"zip": "94500" , 
		"settlement_type_id": 2 , 
		"name": "SANTA LETICIA" ,
		"sector_id": 2, 
		"colony_scope_id": 1 
	},
	{ 
		"zip": "94500" , 
		"settlement_type_id": 2 , 
		"name": "LA JOYITA" ,
		"sector_id": 1, 
		"colony_scope_id": 1 
	},
	{ 
		"zip": "94500" , 
		"settlement_type_id": 2 , 
		"name": "LA UNION" ,
		"sector_id": 1, 
		"colony_scope_id": 1 
	},
	{ 
		"zip": "94500" , 
		"settlement_type_id": 2 , 
		"name": "VILLA LOS FRESNOS" ,
		"sector_id": 1, 
		"colony_scope_id": 1 
	},
	{ 
		"zip": "94500" , 
		"settlement_type_id": 2 , 
		"name": "RANCHO LA SOLEDAD" ,
		"sector_id": 2, 
		"colony_scope_id": 1 
	},
	{ 
		"zip": "94500" , 
		"settlement_type_id": 2 , 
		"name": "EL PEDREGAL" ,
		"sector_id": 2, 
		"colony_scope_id": 1 
	},
	{ 
		"zip": "94500" , 
		"settlement_type_id": 2 , 
		"name": "DOS ARROYOS" ,
		"sector_id": 2, 
		"colony_scope_id": 1 
	},
	{ 
		"zip": "94500" , 
		"settlement_type_id": 2 , 
		"name": "EL BARREAL" ,
		"sector_id": 2, 
		"colony_scope_id": 1 
	},
	{ 
		"zip": "94500" , 
		"settlement_type_id": 2 , 
		"name": "LAS MARGARITAS" ,
		"sector_id": 2, 
		"colony_scope_id": 1 
	},
	{ 
		"zip": "94500" , 
		"settlement_type_id": 2 , 
		"name": "EL JAZMIN (ANTORCHISTA)" ,
		"sector_id": 1, 
		"colony_scope_id": 1 
	},
	{ 
		"zip": "94500" , 
		"settlement_type_id": 2 , 
		"name": "TRES ARROYOS" ,
		"sector_id": 2, 
		"colony_scope_id": 1 
	},
	{ 
		"zip": "94500" , 
		"settlement_type_id": 2 , 
		"name": "CORDOBESES ILUSTRES" ,
		"sector_id": 2, 
		"colony_scope_id": 1 
	},
	{ 
		"zip": "94500" , 
		"settlement_type_id": 2 , 
		"name": "LAS BRISAS" ,
		"sector_id": 2, 
		"colony_scope_id": 1 
	},
	{ 
		"zip": "94500" , 
		"settlement_type_id": 2 , 
		"name": "LOS LIRIOS" ,
		"sector_id": 2, 
		"colony_scope_id": 1 
	},
	{ 
		"zip": "94500" , 
		"settlement_type_id": 2 , 
		"name": "BETANIA" ,
		"sector_id": 1, 
		"colony_scope_id": 1 
	},
	{ 
		"zip": "94500" , 
		"settlement_type_id": 2 , 
		"name": "CENTRAL CAMIONERA" ,
		"sector_id": 3, 
		"colony_scope_id": 1 
	},
	{ 
		"zip": "94500" , 
		"settlement_type_id": 2 , 
		"name": "SANTA TERESITA" ,
		"sector_id": 2, 
		"colony_scope_id": 1 
	},
	{ 
		"zip": "94500" , 
		"settlement_type_id": 2 , 
		"name": "LOS CEDROS" ,
		"sector_id": 2, 
		"colony_scope_id": 1 
	},
	{ 
		"zip": "94500" , 
		"settlement_type_id": 2 , 
		"name": "SANTA MATILDE" ,
		"sector_id": 2, 
		"colony_scope_id": 1 
	},
	{ 
		"zip": "94500" , 
		"settlement_type_id": 2 , 
		"name": "DE LOS DEPORTES" ,
		"sector_id": 2, 
		"colony_scope_id": 1 
	},
	{ 
		"zip": "94500" , 
		"settlement_type_id": 2 , 
		"name": "LA FORTALEZA" ,
		"sector_id": 2, 
		"colony_scope_id": 1 
	},
	{ 
		"zip": "94500" , 
		"settlement_type_id": 2 , 
		"name": "LOMAS DEL PEDREGAL" ,
		"sector_id": 4, 
		"colony_scope_id": 1 
	},
	{ 
		"zip": "94500" , 
		"settlement_type_id": 2 , 
		"name": "LA PALMA" ,
		"sector_id": 2, 
		"colony_scope_id": 1 
	},
	{ 
		"zip": "94500" , 
		"settlement_type_id": 2 , 
		"name": "GUERRERO" ,
		"sector_id": 3, 
		"colony_scope_id": 1 
	},
	{ 
		"zip": "94500" , 
		"settlement_type_id": 2 , 
		"name": "MARGARITA MORAN" ,
		"sector_id": 1, 
		"colony_scope_id": 1 
	},
	{ 
		"zip": "94500" , 
		"settlement_type_id": 9 , 
		"name": "ARBOLEDAS" ,
		"sector_id": 4, 
		"colony_scope_id": 1 
	},
	{ 
		"zip": "94500" , 
		"settlement_type_id": 9 , 
		"name": "CECADYS" ,
		"sector_id": 2, 
		"colony_scope_id": 1 
	},
	{ 
		"zip": "94500" , 
		"settlement_type_id": 9 , 
		"name": "CORDOBA 2000" ,
		"sector_id": 1, 
		"colony_scope_id": 1 
	},
	{ 
		"zip": "94500" , 
		"settlement_type_id": 9 , 
		"name": "EL DORADO" ,
		"sector_id": 1, 
		"colony_scope_id": 1 
	},
	{ 
		"zip": "94500" , 
		"settlement_type_id": 9 , 
		"name": "EL HUERTO" ,
		"sector_id": 1, 
		"colony_scope_id": 1 
	},
	{ 
		"zip": "94500" , 
		"settlement_type_id": 9 , 
		"name": "EL TREBOL" ,
		"sector_id": 1, 
		"colony_scope_id": 1 
	},
	{ 
		"zip": "94500" , 
		"settlement_type_id": 9 , 
		"name": "EL ZOPILOTE" ,
		"sector_id": 4, 
		"colony_scope_id": 1 
	},
	{ 
		"zip": "94500" , 
		"settlement_type_id": 9 , 
		"name": "ERASTO PORTILLA" ,
		"sector_id": 4, 
		"colony_scope_id": 1 
	},
	{ 
		"zip": "94500" , 
		"settlement_type_id": 9 , 
		"name": "HUILANGO 3000" ,
		"sector_id": 1, 
		"colony_scope_id": 1 
	},
	{ 
		"zip": "94500" , 
		"settlement_type_id": 9 , 
		"name": "LA POSTA" ,
		"sector_id": 1, 
		"colony_scope_id": 1 
	},
	{ 
		"zip": "94500" , 
		"settlement_type_id": 9 , 
		"name": "LAS CAÑAS" ,
		"sector_id": 1, 
		"colony_scope_id": 1 
	},
	{ 
		"zip": "94500" , 
		"settlement_type_id": 9 , 
		"name": "LAS FUENTES" ,
		"sector_id": 4, 
		"colony_scope_id": 1 
	},
	{ 
		"zip": "94500" , 
		"settlement_type_id": 9 , 
		"name": "LOMA LINDA" ,
		"sector_id": 4, 
		"colony_scope_id": 1 
	},
	{ 
		"zip": "94500" , 
		"settlement_type_id": 9 , 
		"name": "LOS ARCOS" ,
		"sector_id": 4, 
		"colony_scope_id": 1 
	},
	{ 
		"zip": "94500" , 
		"settlement_type_id": 9 , 
		"name": "LOS CEREZOS" ,
		"sector_id": 2, 
		"colony_scope_id": 1 
	},
	{ 
		"zip": "94500" , 
		"settlement_type_id": 9 , 
		"name": "LOS ROBLES" ,
		"sector_id": 4, 
		"colony_scope_id": 1 
	},
	{ 
		"zip": "94500" , 
		"settlement_type_id": 9 , 
		"name": "RINCON DEL BOSQUE" ,
		"sector_id": 2, 
		"colony_scope_id": 1 
	},
	{ 
		"zip": "94500" , 
		"settlement_type_id": 9 , 
		"name": "SAN ROMAN" ,
		"sector_id": 1, 
		"colony_scope_id": 1 
	},
	{ 
		"zip": "94500" , 
		"settlement_type_id": 9 , 
		"name": "SANTA MARGARITA" ,
		"sector_id": 3, 
		"colony_scope_id": 1 
	},
	{ 
		"zip": "94500" , 
		"settlement_type_id": 9 , 
		"name": "VILLA LAS FLORES" ,
		"sector_id": 4, 
		"colony_scope_id": 1 
	},
	{ 
		"zip": "94500" , 
		"settlement_type_id": 9 , 
		"name": "VISTA HERMOSA" ,
		"sector_id": 4, 
		"colony_scope_id": 1 
	},
	{ 
		"zip": "94500" , 
		"settlement_type_id": 11 , 
		"name": "CAMPESTRE" ,
		"sector_id": 2, 
		"colony_scope_id": 1 
	},
	{ 
		"zip": "94500" , 
		"settlement_type_id": 11 , 
		"name": "CIRCUITO CAMPESTRE CORDOBES" ,
		"sector_id": 2, 
		"colony_scope_id": 1 
	},
	{ 
		"zip": "94500" , 
		"settlement_type_id": 11 , 
		"name": "EL PARAISO" ,
		"sector_id": 4, 
		"colony_scope_id": 1 
	},
	{ 
		"zip": "94500" , 
		"settlement_type_id": 11 , 
		"name": "LA TRINIDAD CHICA" ,
		"sector_id": 2, 
		"colony_scope_id": 1 
	},
	{ 
		"zip": "94500" , 
		"settlement_type_id": 11 , 
		"name": "LAS PALMAS" ,
		"sector_id": 4, 
		"colony_scope_id": 1 
	},
	{ 
		"zip": "94500" , 
		"settlement_type_id": 11 , 
		"name": "SHANGRI-LA" ,
		"sector_id": 1, 
		"colony_scope_id": 1 
	},
	{ 
		"zip": "94500" , 
		"settlement_type_id": 11 , 
		"name": "TRINIDAD CHICA" ,
		"sector_id": 2, 
		"colony_scope_id": 1 
	},
	{ 
		"zip": "94500" , 
		"settlement_type_id": 11 , 
		"name": "FUENTES DEL CAMPESTRE" ,
		"sector_id": 2, 
		"colony_scope_id": 1 
	},
	{ 
		"zip": "94500" , 
		"settlement_type_id": 13 , 
		"name": "PALENQUE PALOTAL" ,
		"sector_id": 2, 
		"colony_scope_id": 1 
	},
	{ 
		"zip": "94500" , 
		"settlement_type_id": 13 , 
		"name": "AGRICOLA" ,
		"sector_id": 2, 
		"colony_scope_id": 1 
	},
	{ 
		"zip": "94500" , 
		"settlement_type_id": 13 , 
		"name": "SANTA ELENA" ,
		"sector_id": 2, 
		"colony_scope_id": 1 
	},
	{ 
		"zip": "94500" , 
		"settlement_type_id": 13 , 
		"name": "TECAMA CALERIA" ,
		"sector_id": 2, 
		"colony_scope_id": 1 
	},
	{ 
		"zip": "94500" , 
		"settlement_type_id": 13 , 
		"name": "LA LUZ PALOTAL" ,
		"sector_id": 2, 
		"colony_scope_id": 1 
	},
	{ 
		"zip": "94500" , 
		"settlement_type_id": 13 , 
		"name": "LA REFORMA" ,
		"sector_id": 2, 
		"colony_scope_id": 1 
	},
	{ 
		"zip": "94500" , 
		"settlement_type_id": 12 , 
		"name": "AGUSTIN MILLAN" ,
		"sector_id": 3, 
		"colony_scope_id": 1 
	},
	{ 
		"zip": "94500" , 
		"settlement_type_id": 9 , 
		"name": "JARDIN" ,
		"sector_id": 3, 
		"colony_scope_id": 1 
	},
	{ 
		"zip": "94500" , 
		"settlement_type_id": 10 , 
		"name": "SABANA LARGA" ,
		"sector_id": 2, 
		"colony_scope_id": 1 
	},
	{ 
		"zip": "94500" , 
		"settlement_type_id": 15 , 
		"name": "CORDOBA-FORTIN" ,
		"sector_id": 2, 
		"colony_scope_id": 1 
	},
	{ 
		"zip": "94500" , 
		"settlement_type_id": 14 , 
		"name": "SAN NICOLAS" ,
		"sector_id": 1, 
		"colony_scope_id": 1 
	}
]